KUIPER-00008            
1 63724U 25088A   26186.30546774  .00001466  00000+0  22123-3 0  9993
2 63724  51.9007 287.9117 0000557 104.8023 255.3001 14.79936352 65462
KUIPER-00009            
1 63725U 25088B   26185.71256849 -.00003868  00000+0 -47884-3 0  9990
2 63725  51.9030 308.1633 0000362 215.0339 145.0600 14.79922854 65122
KUIPER-00010            
1 63726U 25088C   26185.53429256  .00000399  00000+0  81382-4 0  9991
2 63726  51.9019 286.4220 0000594 105.9766 254.1262 14.79932862 65034
KUIPER-00011            
1 63727U 25088D   26185.55997179  .00000617  00000+0  10989-3 0  9995
2 63727  51.8999 293.8601 0000733 108.5110 251.5932 14.79932372 65067
KUIPER-00012            
1 63728U 25088E   26186.21766141 -.00001955  00000+0 -22743-3 0  9992
2 63728  51.9027 275.8862 0000524  97.0273 263.0749 14.79943849 65324
KUIPER-00013            
1 63729U 25088F   26185.60859348  .00001035  00000+0  16478-3 0  9992
2 63729  51.9013 311.0967 0001250  91.4704 268.6402 14.79920298 64883
KUIPER-00014            
1 63730U 25088G   26185.64238333  .00001308  00000+0  20052-3 0  9999
2 63730  51.9053 310.8919 0000763  95.1448 264.9601 14.79929565 64704
KUIPER-00015            
1 63731U 25088H   26185.66536558  .00001105  00000+0  17389-3 0  9996
2 63731  51.9000 320.8547 0000528 102.7565 257.3456 14.79930822 65027
KUIPER-00016            
1 63732U 25088J   26184.35661750  .00002740  00000+0  38833-3 0  9998
2 63732  51.9010 319.0921 0000628 102.0829 258.0204 14.79929676 64474
KUIPER-00018            
1 63733U 25088K   26185.61670751  .00001191  00000+0  18519-3 0  9998
2 63733  51.9046 303.5476 0000782  97.8394 262.2657 14.79932941 64801
KUIPER-00019            
1 63734U 25088L   26185.50831150  .00001055  00000+0  16738-3 0  9999
2 63734  51.9016 302.7884 0000706 108.8369 251.2670 14.79914630 64802
KUIPER-00020            
1 63735U 25088M   26185.61401092  .00000438  00000+0  86439-4 0  9990
2 63735  51.9028 306.0651 0000557 107.3722 252.7302 14.79932407 64974
KUIPER-00021            
1 63736U 25088N   26185.71530240  .00001146  00000+0  17933-3 0  9999
2 63736  51.9014 305.5729 0000769 102.4758 257.6290 14.79932366 64828
KUIPER-00023            
1 63737U 25088P   26185.34117619  .00001787  00000+0  26352-3 0  9996
2 63737  51.9027 309.7162 0000718 110.4770 249.6270 14.79912126 65032
KUIPER-00024            
1 63738U 25088Q   26185.69233430  .00001041  00000+0  16560-3 0  9998
2 63738  51.9031 295.7602 0000681 106.7252 253.3785 14.79930366 65380
KUIPER-00025            
1 63739U 25088R   26185.71796541  .00003178  00000+0  44585-3 0  9990
2 63739  51.9044 303.1274 0000538  61.4704 298.6313 14.79916788 65149
