{"fetched_at":"2026-07-05T17:36:07.652Z","source":"https://celestrak.org/NORAD/elements/gp.php?GROUP=kuiper&FORMAT=JSON","constellation":"kuiper","records":[{"OBJECT_NAME":"KUIPER-00008","OBJECT_ID":"2025-088A","EPOCH":"2026-07-05T07:19:52.412736","CLASSIFICATION_TYPE":"U","MEAN_MOTION":14.79936352,"ECCENTRICITY":0.00005572,"INCLINATION":51.9007,"RA_OF_ASC_NODE":287.9117,"ARG_OF_PERICENTER":104.8023,"MEAN_ANOMALY":255.3001,"EPHEMERIS_TYPE":0,"NORAD_CAT_ID":63724,"ELEMENT_SET_NO":999,"REV_AT_EPOCH":6546,"BSTAR":0.00022122885,"MEAN_MOTION_DOT":0.00001466,"MEAN_MOTION_DDOT":0},{"OBJECT_NAME":"KUIPER-00009","OBJECT_ID":"2025-088B","EPOCH":"2026-07-04T17:06:05.917536","CLASSIFICATION_TYPE":"U","MEAN_MOTION":14.79922854,"ECCENTRICITY":0.00003622,"INCLINATION":51.903,"RA_OF_ASC_NODE":308.1633,"ARG_OF_PERICENTER":215.0339,"MEAN_ANOMALY":145.06,"EPHEMERIS_TYPE":0,"NORAD_CAT_ID":63725,"ELEMENT_SET_NO":999,"REV_AT_EPOCH":6512,"BSTAR":-0.00047883829,"MEAN_MOTION_DOT":-0.00003868,"MEAN_MOTION_DDOT":0},{"OBJECT_NAME":"KUIPER-00010","OBJECT_ID":"2025-088C","EPOCH":"2026-07-04T12:49:22.877184","CLASSIFICATION_TYPE":"U","MEAN_MOTION":14.79932862,"ECCENTRICITY":0.00005944,"INCLINATION":51.9019,"RA_OF_ASC_NODE":286.422,"ARG_OF_PERICENTER":105.9766,"MEAN_ANOMALY":254.1262,"EPHEMERIS_TYPE":0,"NORAD_CAT_ID":63726,"ELEMENT_SET_NO":999,"REV_AT_EPOCH":6503,"BSTAR":0.000081381665,"MEAN_MOTION_DOT":0.00000399,"MEAN_MOTION_DDOT":0},{"OBJECT_NAME":"KUIPER-00011","OBJECT_ID":"2025-088D","EPOCH":"2026-07-04T13:26:21.562656","CLASSIFICATION_TYPE":"U","MEAN_MOTION":14.79932372,"ECCENTRICITY":0.00007337,"INCLINATION":51.8999,"RA_OF_ASC_NODE":293.8601,"ARG_OF_PERICENTER":108.511,"MEAN_ANOMALY":251.5932,"EPHEMERIS_TYPE":0,"NORAD_CAT_ID":63727,"ELEMENT_SET_NO":999,"REV_AT_EPOCH":6506,"BSTAR":0.00010988968,"MEAN_MOTION_DOT":0.00000617,"MEAN_MOTION_DDOT":0},{"OBJECT_NAME":"KUIPER-00012","OBJECT_ID":"2025-088E","EPOCH":"2026-07-05T05:13:25.945824","CLASSIFICATION_TYPE":"U","MEAN_MOTION":14.79943849,"ECCENTRICITY":0.00005243,"INCLINATION":51.9027,"RA_OF_ASC_NODE":275.8862,"ARG_OF_PERICENTER":97.0273,"MEAN_ANOMALY":263.0749,"EPHEMERIS_TYPE":0,"NORAD_CAT_ID":63728,"ELEMENT_SET_NO":999,"REV_AT_EPOCH":6532,"BSTAR":-0.00022743114,"MEAN_MOTION_DOT":-0.00001955,"MEAN_MOTION_DDOT":0},{"OBJECT_NAME":"KUIPER-00013","OBJECT_ID":"2025-088F","EPOCH":"2026-07-04T14:36:22.476672","CLASSIFICATION_TYPE":"U","MEAN_MOTION":14.79920298,"ECCENTRICITY":0.00012502,"INCLINATION":51.9013,"RA_OF_ASC_NODE":311.0967,"ARG_OF_PERICENTER":91.4704,"MEAN_ANOMALY":268.6402,"EPHEMERIS_TYPE":0,"NORAD_CAT_ID":63729,"ELEMENT_SET_NO":999,"REV_AT_EPOCH":6488,"BSTAR":0.00016477905,"MEAN_MOTION_DOT":0.00001035,"MEAN_MOTION_DDOT":0},{"OBJECT_NAME":"KUIPER-00014","OBJECT_ID":"2025-088G","EPOCH":"2026-07-04T15:25:01.919712","CLASSIFICATION_TYPE":"U","MEAN_MOTION":14.79929565,"ECCENTRICITY":0.00007638,"INCLINATION":51.9053,"RA_OF_ASC_NODE":310.8919,"ARG_OF_PERICENTER":95.1448,"MEAN_ANOMALY":264.9601,"EPHEMERIS_TYPE":0,"NORAD_CAT_ID":63730,"ELEMENT_SET_NO":999,"REV_AT_EPOCH":6470,"BSTAR":0.00020051656,"MEAN_MOTION_DOT":0.00001308,"MEAN_MOTION_DDOT":0},{"OBJECT_NAME":"KUIPER-00015","OBJECT_ID":"2025-088H","EPOCH":"2026-07-04T15:58:07.586112","CLASSIFICATION_TYPE":"U","MEAN_MOTION":14.79930822,"ECCENTRICITY":0.00005284,"INCLINATION":51.9,"RA_OF_ASC_NODE":320.8547,"ARG_OF_PERICENTER":102.7565,"MEAN_ANOMALY":257.3456,"EPHEMERIS_TYPE":0,"NORAD_CAT_ID":63731,"ELEMENT_SET_NO":999,"REV_AT_EPOCH":6502,"BSTAR":0.00017388721,"MEAN_MOTION_DOT":0.00001105,"MEAN_MOTION_DDOT":0},{"OBJECT_NAME":"KUIPER-00016","OBJECT_ID":"2025-088J","EPOCH":"2026-07-03T08:33:31.752000","CLASSIFICATION_TYPE":"U","MEAN_MOTION":14.79929676,"ECCENTRICITY":0.0000628,"INCLINATION":51.901,"RA_OF_ASC_NODE":319.0921,"ARG_OF_PERICENTER":102.0829,"MEAN_ANOMALY":258.0204,"EPHEMERIS_TYPE":0,"NORAD_CAT_ID":63732,"ELEMENT_SET_NO":999,"REV_AT_EPOCH":6447,"BSTAR":0.00038833,"MEAN_MOTION_DOT":0.0000274,"MEAN_MOTION_DDOT":0},{"OBJECT_NAME":"KUIPER-00018","OBJECT_ID":"2025-088K","EPOCH":"2026-07-04T14:48:03.528864","CLASSIFICATION_TYPE":"U","MEAN_MOTION":14.79932941,"ECCENTRICITY":0.00007823,"INCLINATION":51.9046,"RA_OF_ASC_NODE":303.5476,"ARG_OF_PERICENTER":97.8394,"MEAN_ANOMALY":262.2657,"EPHEMERIS_TYPE":0,"NORAD_CAT_ID":63733,"ELEMENT_SET_NO":999,"REV_AT_EPOCH":6480,"BSTAR":0.00018518738,"MEAN_MOTION_DOT":0.00001191,"MEAN_MOTION_DDOT":0},{"OBJECT_NAME":"KUIPER-00019","OBJECT_ID":"2025-088L","EPOCH":"2026-07-04T12:11:58.113600","CLASSIFICATION_TYPE":"U","MEAN_MOTION":14.7991463,"ECCENTRICITY":0.00007065,"INCLINATION":51.9016,"RA_OF_ASC_NODE":302.7884,"ARG_OF_PERICENTER":108.8369,"MEAN_ANOMALY":251.267,"EPHEMERIS_TYPE":0,"NORAD_CAT_ID":63734,"ELEMENT_SET_NO":999,"REV_AT_EPOCH":6480,"BSTAR":0.00016737968,"MEAN_MOTION_DOT":0.00001055,"MEAN_MOTION_DDOT":0},{"OBJECT_NAME":"KUIPER-00020","OBJECT_ID":"2025-088M","EPOCH":"2026-07-04T14:44:10.543488","CLASSIFICATION_TYPE":"U","MEAN_MOTION":14.79932407,"ECCENTRICITY":0.00005579,"INCLINATION":51.9028,"RA_OF_ASC_NODE":306.0651,"ARG_OF_PERICENTER":107.3722,"MEAN_ANOMALY":252.7302,"EPHEMERIS_TYPE":0,"NORAD_CAT_ID":63735,"ELEMENT_SET_NO":999,"REV_AT_EPOCH":6497,"BSTAR":0.000086439225,"MEAN_MOTION_DOT":0.00000438,"MEAN_MOTION_DDOT":0},{"OBJECT_NAME":"KUIPER-00021","OBJECT_ID":"2025-088N","EPOCH":"2026-07-04T17:10:02.127360","CLASSIFICATION_TYPE":"U","MEAN_MOTION":14.79932366,"ECCENTRICITY":0.00007699,"INCLINATION":51.9014,"RA_OF_ASC_NODE":305.5729,"ARG_OF_PERICENTER":102.4758,"MEAN_ANOMALY":257.629,"EPHEMERIS_TYPE":0,"NORAD_CAT_ID":63736,"ELEMENT_SET_NO":999,"REV_AT_EPOCH":6482,"BSTAR":0.0001793306,"MEAN_MOTION_DOT":0.00001146,"MEAN_MOTION_DDOT":0},{"OBJECT_NAME":"KUIPER-00023","OBJECT_ID":"2025-088P","EPOCH":"2026-07-04T08:11:17.622816","CLASSIFICATION_TYPE":"U","MEAN_MOTION":14.79912126,"ECCENTRICITY":0.00007186,"INCLINATION":51.9027,"RA_OF_ASC_NODE":309.7162,"ARG_OF_PERICENTER":110.477,"MEAN_ANOMALY":249.627,"EPHEMERIS_TYPE":0,"NORAD_CAT_ID":63737,"ELEMENT_SET_NO":999,"REV_AT_EPOCH":6503,"BSTAR":0.00026351842,"MEAN_MOTION_DOT":0.00001787,"MEAN_MOTION_DDOT":0},{"OBJECT_NAME":"KUIPER-00024","OBJECT_ID":"2025-088Q","EPOCH":"2026-07-04T16:36:57.683520","CLASSIFICATION_TYPE":"U","MEAN_MOTION":14.79930366,"ECCENTRICITY":0.00006815,"INCLINATION":51.9031,"RA_OF_ASC_NODE":295.7602,"ARG_OF_PERICENTER":106.7252,"MEAN_ANOMALY":253.3785,"EPHEMERIS_TYPE":0,"NORAD_CAT_ID":63738,"ELEMENT_SET_NO":999,"REV_AT_EPOCH":6538,"BSTAR":0.00016560001,"MEAN_MOTION_DOT":0.00001041,"MEAN_MOTION_DDOT":0},{"OBJECT_NAME":"KUIPER-00025","OBJECT_ID":"2025-088R","EPOCH":"2026-07-04T17:13:52.211424","CLASSIFICATION_TYPE":"U","MEAN_MOTION":14.79916788,"ECCENTRICITY":0.00005381,"INCLINATION":51.9044,"RA_OF_ASC_NODE":303.1274,"ARG_OF_PERICENTER":61.4704,"MEAN_ANOMALY":298.6313,"EPHEMERIS_TYPE":0,"NORAD_CAT_ID":63739,"ELEMENT_SET_NO":999,"REV_AT_EPOCH":6514,"BSTAR":0.00044584803,"MEAN_MOTION_DOT":0.00003178,"MEAN_MOTION_DDOT":0}]}
